SWISSCUBE               
1 35932U 09051B   26122.25913277  .00001167  00000+0  24061-3 0  9996
2 35932  98.4064  29.3448 0006995   7.3108 352.8193 14.62391174882448
BEESAT-1                
1 35933U 09051C   26122.45026463  .00000950  00000+0  20076-3 0  9992
2 35933  98.3992  29.2698 0005779  22.6870 337.4585 14.61644142882505
ITUPSAT1                
1 35935U 09051E   26122.26418443  .00000894  00000+0  19483-3 0  9993
2 35935  98.4078  28.3209 0008168  29.9726 330.1939 14.60370017882033
XIWANG-1 (HOPE-1)       
1 36122U 09072B   26122.49241580 -.00000442  00000+0 -10421-2 0  9999
2 36122 100.3996  77.0618 0007454 343.3493  16.7374 13.16436182786994
O/OREOS (USA 219)       
1 37224U 10062C   26122.45274481  .00002266  00000+0  22039-3 0  9999
2 37224  71.9705 183.9184 0013721 161.3343 198.8333 14.93558585109815
JUGNU                   
1 37839U 11058B   26122.42084316  .00000466  00000+0  10379-3 0  9994
2 37839  19.9601 226.4735 0018477 291.4787 136.4716 14.13763040752542
SRMSAT                  
1 37841U 11058D   26122.29062612  .00000431  00000+0  89969-4 0  9991
2 37841  19.9735 337.2734 0011772  59.3193  96.4593 14.11565063751322
STRAND-1                
1 39090U 13009E   26122.45333035  .00000291  00000+0  11214-3 0  9996
2 39090  98.3913 303.8157 0008873  15.9986 344.1480 14.37135809690490
ZACUBE-1 (TSHEPISOSAT)  
1 39417U 13066B   26122.40972096  .00005981  00000+0  46630-3 0  9994
2 39417  97.8128  84.5000 0043410  46.7665 313.7170 15.00818689673862
GOMX-1                  
1 39430U 13066Q   26122.49180067  .00002046  00000+0  31389-3 0  9991
2 39430  97.6510 325.8341 0127824 223.8408 135.2598 14.69284498663201
CUBEBUG-2 (LO-74)       
1 39440U 13066AA  26122.37275932  .00003101  00000+0  29136-3 0  9995
2 39440  97.8882  71.1799 0057886 177.8565 182.2913 14.93431957670152
FUNCUBE-1 (AO-73)       
1 39444U 13066AE  26122.37402617  .00009849  00000+0  61935-3 0  9999
2 39444  97.8256  92.8932 0036724   3.2162 356.9295 15.08870936672755
UWE-3                   
1 39446U 13066AG  26122.29021707  .00005596  00000+0  48305-3 0  9990
2 39446  97.8678  78.0797 0051209 111.9254 248.7422 14.96645044670714
UNISAT-6                
1 40012U 14033C   26122.40933447  .00003313  00000+0  36081-3 0  9995
2 40012  97.7821 275.9504 0044482 217.9297 141.8784 14.87974995639356
DUCHIFAT-1              
1 40021U 14033M   26122.10350920  .00071269  00000+0  98640-3 0  9995
2 40021  98.0523 175.1039 0004936 215.6869 144.4054 15.56863201648569
QB50P1                  
1 40025U 14033R   26122.26811127  .00010024  00000+0  50246-3 0  9999
2 40025  98.0979 130.2189 0009581  34.1969 325.9878 15.17541258646067
LILACSAT-2              
1 40908U 15049K   26122.51986708  .00018028  00000+0  32331-3 0  9990
2 40908  97.4708 157.6643 0008513  68.9145 291.3015 15.49946101588675
FOX-1A (AO-85)          
1 40967U 15058D   26122.26800329  .00004463  00000+0  40240-3 0  9997
2 40967  64.7764  61.6535 0128633  74.5836 286.9443 14.90690739106724
CAS-2T & KS-1Q          
1 41847U 16066G   26122.45671265  .00000713  00000+0  11055-3 0  9997
2 41847  98.3829 198.7093 0340899 268.3175  87.8949 14.44576230498199
RADFXSAT (FOX-1B)       
1 43017U 17073E   26122.35463941  .00010044  00000+0  44184-3 0  9993
2 43017  97.4768 350.5258 0154301 126.4391 235.1178 15.11882760458469
DIWATA-2B               
1 43678U 18084H   26122.48522295  .00003971  00000+0  32215-3 0  9994
2 43678  98.1070 316.7445 0012742 328.2562  31.7891 15.00227033409363
ES'HAIL 2               
1 43700U 18090A   26120.49191795  .00000147  00000+0  00000+0 0  9998
2 43700   0.0137 266.9736 0001700 165.7205 348.6817  1.00277015 27199
FOX-1CLIFF (AO-95)      
1 43770U 18099N   26122.44464981  .00013036  00000+0  51301-3 0  9996
2 43770  97.4415 182.8878 0010095 142.8587 217.3351 15.25718835406248
ITASAT                  
1 43786U 18099AE  26122.09915279  .00008053  00000+0  39307-3 0  9990
2 43786  97.4064 174.5423 0013754 148.3517 211.8547 15.18457236405914
JY1SAT (JO-97)          
1 43803U 18099AX  26122.13968295  .00017768  00000+0  57302-3 0  9999
2 43803  97.4160 184.8599 0007154  82.4042 277.8012 15.32194856406571
UWE-4                   
1 43880U 18111E   26122.28520385  .00036031  00000+0  80539-3 0  9991
2 43880  97.5866  48.6667 0010426 121.5671 238.6595 15.43366879403691
TIANYAN 01              
1 44881U 19093C   26122.47283630  .00000703  00000+0  85565-4 0  9995
2 44881  97.7547 195.8181 0012302 234.4531 125.5539 14.86442685344626
RS-44 & BREEZE-KM R/B   
1 44909U 19096E   26122.42539860  .00000027  00000+0  70101-4 0  9992
2 44909  82.5256  10.1162 0216422 251.3187 106.4311 12.79748007296492
SALSAT                  
1 46495U 20068K   26122.21729458  .00009803  00000+0  34900-3 0  9993
2 46495  97.8855 122.5095 0011689 102.5518 257.7029 15.29117321308334
XW-3 (CAS-9)            
1 50466U 21131B   26122.51488428  .00000548  00000+0  18306-3 0  9999
2 50466  98.4960 215.1584 0003214 222.2887 137.8054 14.41313047228532
GREENCUBE (IO-117)      
1 53109U 22080E   26121.96028639 -.00000003  00000+0  00000+0 0  9997
2 53109  70.1452 314.3297 0008840 300.2950  59.6835  6.42583347 89091
UMKA 1 (RS40S)          
1 57172U 23091G   26122.42309588  .00006147  00000+0  28565-3 0  9995
2 57172  97.5083 181.3064 0011178 279.7601  80.2371 15.20300715157052
CUBESX-HSE 3 (RS42S)    
1 57178U 23091N   26122.41089102  .00013815  00000+0  47635-3 0  9996
2 57178  97.5119 187.4552 0009597 249.8646 110.1562 15.30073650157428
MONITOR-3 (RS58S)       
1 57180U 23091Q   26122.40355906  .00011203  00000+0  42565-3 0  9992
2 57180  97.5112 185.5400 0010363 258.0988 101.9088 15.26931432157303
MONITOR-4 (RS57S)       
1 57182U 23091S   26122.45100367  .00011535  00000+0  43685-3 0  9990
2 57182  97.5106 185.5558 0010309 258.2903 101.7179 15.27029349157317
MONITOR-2 (RS39S)       
1 57184U 23091U   26122.38848377  .00005541  00000+0  27174-3 0  9999
2 57184  97.5105 180.9739 0009629 271.6483  88.3648 15.18487341157000
SVYATOBOR 1 (RS60S)     
1 57187U 23091X   26122.42669686  .00009380  00000+0  36901-3 0  9994
2 57187  97.5118 186.0119 0008096 248.2054 111.8322 15.25841004157332
VIZARD-METEO (RS38S)    
1 57189U 23091Z   26122.45817466  .00017591  00000+0  52636-3 0  9996
2 57189  97.5114 191.0744 0006648 222.4215 137.6515 15.34590088157674
POLYTECH-UNIVERSE 3 (R*)
1 57191U 23091AB  26122.42166685  .00005428  00000+0  26445-3 0  9991
2 57191  97.5081 180.5120 0013980 290.3450  69.6282 15.18685777157007
UTMN 2 (RS27S)          
1 57203U 23091AP  26122.38865547  .00014224  00000+0  47773-3 0  9994
2 57203  97.5113 189.0098 0007109 232.8559 127.2033 15.30938417157531
KUZGTU 1 (RS47S)        
1 57217U 23091AV  26122.42858642  .00012630  00000+0  45273-3 0  9994
2 57217  97.5093 186.4739 0009669 254.1576 105.8598 15.28825112157380
SONATE-2                
1 59112U 24043Q   26122.37972006  .00041547  00000+0  60722-3 0  9998
2 59112  97.5485 270.1015 0006457  15.5941 344.5511 15.55502986120766
MESAT1                  
1 60209U 24125G   26122.32904558  .00052312  00000+0  67778-3 0  9990
2 60209  97.2365 338.9141 0011015  36.1183 324.0815 15.58652776102413
OOV-CUBE (TUBSAT-30)    
1 60240U 24128F   26122.13987007  .00002925  00000+0  22892-3 0  9990
2 60240  61.9969  26.1090 0049969 123.6472 236.9400 15.02542307 99195
COLIBRI-S (RS67S)       
1 61746U 24199M   26122.45199677  .00022727  00000+0  46856-3 0  9991
2 61746  97.3059 355.9414 0010750  88.9548 271.2933 15.45842055130342
HORS 3 (RS81S)          
1 61753U 24199U   26122.41644749  .00034841  00000+0  57932-3 0  9997
2 61753  97.3042 357.4403 0009185  93.4117 266.8186 15.51941567130457
HORS 4 (RS82S)          
1 61754U 24199V   26122.37124546  .00044610  00000+0  64702-3 0  9999
2 61754  97.2996 358.3352 0008273  90.3096 269.9106 15.55679040130518
HORIZON (RS59S)         
1 61757U 24199Y   26122.36501896  .00588976  14859-3  14030-2 0  9995
2 61757  97.2873   4.3770 0004591 135.3113 224.8534 15.96638454130903
ARCTICSAT 1 (RS74S)     
1 61762U 24199AD  26122.40552594  .00217103  00000+0  11218-2 0  9992
2 61762  97.2950   3.2751 0005401  92.9851 267.2035 15.80493733130831
SIT-2086                
1 61764U 24199AF  26122.40427238  .00024590  00000+0  43500-3 0  9996
2 61764  97.3016 358.0557 0008670  79.6815 280.5414 15.50266293127331
HYPERVIEW 1G (RS66S)    
1 61772U 24199AP  26122.44055779  .00093709  00000+0  90137-3 0  9992
2 61772  97.2965   0.1989 0008898  91.0013 269.2266 15.66219470127494
ALTAIR (RS65S)          
1 61779U 24199AW  26122.39626321  .00013028  00000+0  37058-3 0  9999
2 61779  97.3089 352.0650 0014798 108.8693 251.4157 15.36158164130080
ASRTU-1 (AO-123)        
1 61781U 24199AY  26122.41210824  .00008678  00000+0  25688-3 0  9993
2 61781  97.3061 351.5039 0015802 111.0247 249.2689 15.35001719126909
TUSUR GO (RS78S)        
1 61782U 24199AZ  26122.40473804  .01283112  10274-2  16052-2 0  9992
2 61782  97.2843   3.6362 0005109 176.6363 183.4955 16.07906458127726
SAMSAT-IONOSPHERE (RS7*)
1 61784U 24199BB  26122.45220557  .00043540  00000+0  67449-3 0  9992
2 61784  97.3016 357.3852 0011465  93.2381 267.0185 15.53839698130459
RTU MIREA 1 (RS51S)     
1 61785U 24199BC  26122.37197591  .00051745  00000+0  72732-3 0  9992
2 61785  97.3009 357.9306 0011274  91.4450 268.8097 15.56464724127338
TEVEL2-4                
1 63213U 25052D   26122.44838547  .00020125  00000+0  63228-3 0  9998
2 63213  97.3955  18.8104 0000252 248.4422 111.6794 15.33029899 63100
TEVEL2-5                
1 63214U 25052E   26121.68074363  .00022075  00000+0  69709-3 0  9998
2 63214  97.3955  18.0031 0000337 285.9180  74.2025 15.32846989 62985
TEVEL2-6                
1 63215U 25052F   26122.21419617  .00021010  00000+0  66395-3 0  9990
2 63215  97.3956  18.5214 0000439 266.3780  93.7412 15.32833722 63064
